{"type": "FeatureCollection", "features": [ {"type": "Feature", "properties": {"norad_id": 66697, "name": "IRIDE FM3", "group": "last-30-days", "lat": 6.482317808351704, "lon": 71.00861626563155, "alt_km": 514.211644494455, "timestamp": "2025-12-26T07:29:17.192376+00:00", "meta": {"OBJECT_NAME": "IRIDE FM3", "OBJECT_ID": "2025-276AH", "EPOCH": "2025-12-25T21:58:06.674592", "MEAN_MOTION": 15.18213493, "ECCENTRICITY": 0.00014718, "INCLINATION": 97.4382, "RA_OF_ASC_NODE": 71.4692, "ARG_OF_PERICENTER": 148.8739, "MEAN_ANOMALY": 211.2583, "EPHEMERIS_TYPE": 0, "CLASSIFICATION_TYPE": "U", "NORAD_CAT_ID": 66697, "ELEMENT_SET_NO": 999, "REV_AT_EPOCH": 412, "BSTAR": 0.00033938721, "MEAN_MOTION_DOT": 6.877e-05, "MEAN_MOTION_DDOT": 0}, "tle": {"line1": "1 66697U 25276AH  25359.91535503  .00006877  00000+0  33939-3 0  9998", "line2": "2 66697  97.4382  71.4692 0001471 148.8739 211.2583 15.18213493  4127"}}, "geometry": {"type": "Point", "coordinates": [71.00861626563155, 6.482317808351704]}}, {"type": "Feature", "properties": {"norad_id": 66698, "name": "IRIDE FM4", "group": "last-30-days", "lat": -71.52453832945497, "lon": 94.84474948879657, "alt_km": 519.7124940215717, "timestamp": "2025-12-26T07:29:17.192386+00:00", "meta": {"OBJECT_NAME": "IRIDE FM4", "OBJECT_ID": "2025-276AJ", "EPOCH": "2025-12-25T22:18:48.640032", "MEAN_MOTION": 15.17381739, "ECCENTRICITY": 0.00027969, "INCLINATION": 97.4385, "RA_OF_ASC_NODE": 71.4506, "ARG_OF_PERICENTER": 242.3634, "MEAN_ANOMALY": 117.7316, "EPHEMERIS_TYPE": 0, "CLASSIFICATION_TYPE": "U", "NORAD_CAT_ID": 66698, "ELEMENT_SET_NO": 999, "REV_AT_EPOCH": 412, "BSTAR": 0.00041135206, "MEAN_MOTION_DOT": 8.154e-05, "MEAN_MOTION_DDOT": 0}, "tle": {"line1": "1 66698U 25276AJ  25359.92972963  .00008154  00000+0  41135-3 0  9992", "line2": "2 66698  97.4385  71.4506 0002796 242.3634 117.7316 15.17381739  4122"}}, "geometry": {"type": "Point", "coordinates": [94.84474948879657, -71.52453832945497]}}, {"type": "Feature", "properties": {"norad_id": 66699, "name": "IRIDE FM5", "group": "last-30-days", "lat": -69.99468461663353, "lon": 92.865459321549, "alt_km": 519.7118360909117, "timestamp": "2025-12-26T07:29:17.192398+00:00", "meta": {"OBJECT_NAME": "IRIDE FM5", "OBJECT_ID": "2025-276AK", "EPOCH": "2025-12-25T22:18:23.238432", "MEAN_MOTION": 15.17422769, "ECCENTRICITY": 0.00028129, "INCLINATION": 97.4398, "RA_OF_ASC_NODE": 71.4557, "ARG_OF_PERICENTER": 237.9299, "MEAN_ANOMALY": 122.1661, "EPHEMERIS_TYPE": 0, "CLASSIFICATION_TYPE": "U", "NORAD_CAT_ID": 66699, "ELEMENT_SET_NO": 999, "REV_AT_EPOCH": 412, "BSTAR": 0.00064679656, "MEAN_MOTION_DOT": 0.00012883, "MEAN_MOTION_DDOT": 0}, "tle": {"line1": "1 66699U 25276AK  25359.92943563  .00012883  00000+0  64680-3 0  9991", "line2": "2 66699  97.4398  71.4557 0002812 237.9299 122.1661 15.17422769  4121"}}, "geometry": {"type": "Point", "coordinates": [92.865459321549, -69.99468461663353]}}, {"type": "Feature", "properties": {"norad_id": 66700, "name": "IRIDE FM6", "group": "last-30-days", "lat": 10.463973663119212, "lon": 70.49015096938315, "alt_km": 513.7814690426567, "timestamp": "2025-12-26T07:29:17.192407+00:00", "meta": {"OBJECT_NAME": "IRIDE FM6", "OBJECT_ID": "2025-276AL", "EPOCH": "2025-12-25T21:57:03.587040", "MEAN_MOTION": 15.18221576, "ECCENTRICITY": 0.00020872, "INCLINATION": 97.4399, "RA_OF_ASC_NODE": 71.4823, "ARG_OF_PERICENTER": 147.4677, "MEAN_ANOMALY": 212.6686, "EPHEMERIS_TYPE": 0, "CLASSIFICATION_TYPE": "U", "NORAD_CAT_ID": 66700, "ELEMENT_SET_NO": 999, "REV_AT_EPOCH": 412, "BSTAR": 0.0017391969, "MEAN_MOTION_DOT": 0.00035666, "MEAN_MOTION_DDOT": 0}, "tle": {"line1": "1 66700U 25276AL  25359.91462485  .00035666  00000+0  17392-2 0  9993", "line2": "2 66700  97.4399  71.4823 0002087 147.4677 212.6686 15.18221576  4126"}}, "geometry": {"type": "Point", "coordinates": [70.49015096938315, 10.463973663119212]}}, {"type": "Feature", "properties": {"norad_id": 66701, "name": "IRIDE FM7", "group": "last-30-days", "lat": -69.77832376692507, "lon": 92.62139596179833, "alt_km": 518.5872427379991, "timestamp": "2025-12-26T07:29:17.192417+00:00", "meta": {"OBJECT_NAME": "IRIDE FM7", "OBJECT_ID": "2025-276AM", "EPOCH": "2025-12-25T22:18:21.309984", "MEAN_MOTION": 15.17495492, "ECCENTRICITY": 0.00050999, "INCLINATION": 97.4415, "RA_OF_ASC_NODE": 71.4624, "ARG_OF_PERICENTER": 235.8175, "MEAN_ANOMALY": 124.2576, "EPHEMERIS_TYPE": 0, "CLASSIFICATION_TYPE": "U", "NORAD_CAT_ID": 66701, "ELEMENT_SET_NO": 999, "REV_AT_EPOCH": 412, "BSTAR": 0.0016248232, "MEAN_MOTION_DOT": 0.00032625, "MEAN_MOTION_DDOT": 0}, "tle": {"line1": "1 66701U 25276AM  25359.92941331  .00032625  00000+0  16248-2 0  9998", "line2": "2 66701  97.4415  71.4624 0005099 235.8175 124.2576 15.17495492  4121"}}, "geometry": {"type": "Point", "coordinates": [92.62139596179833, -69.77832376692507]}}, {"type": "Feature", "properties": {"norad_id": 66702, "name": "IRIDE FM8", "group": "last-30-days", "lat": -69.08214254399292, "lon": 91.8200479242553, "alt_km": 519.414900400966, "timestamp": "2025-12-26T07:29:17.192427+00:00", "meta": {"OBJECT_NAME": "IRIDE FM8", "OBJECT_ID": "2025-276AN", "EPOCH": "2025-12-25T22:18:07.830720", "MEAN_MOTION": 15.17437506, "ECCENTRICITY": 0.00028182, "INCLINATION": 97.4393, "RA_OF_ASC_NODE": 71.4539, "ARG_OF_PERICENTER": 249.0904, "MEAN_ANOMALY": 111.0028, "EPHEMERIS_TYPE": 0, "CLASSIFICATION_TYPE": "U", "NORAD_CAT_ID": 66702, "ELEMENT_SET_NO": 999, "REV_AT_EPOCH": 412, "BSTAR": 0.00043506151, "MEAN_MOTION_DOT": 8.642e-05, "MEAN_MOTION_DDOT": 0}, "tle": {"line1": "1 66702U 25276AN  25359.92925730  .00008642  00000+0  43506-3 0  9994", "line2": "2 66702  97.4393  71.4539 0002818 249.0904 111.0028 15.17437506  4123"}}, "geometry": {"type": "Point", "coordinates": [91.8200479242553, -69.08214254399292]}}, {"type": "Feature", "properties": {"norad_id": 66703, "name": "PELICAN-6", "group": "last-30-days", "lat": -63.31776645354736, "lon": 86.90757308897841, "alt_km": 521.0592518333542, "timestamp": "2025-12-26T07:29:17.192441+00:00", "meta": {"OBJECT_NAME": "PELICAN-6", "OBJECT_ID": "2025-276AP", "EPOCH": "2025-12-25T22:00:01.999584", "MEAN_MOTION": 15.17368571, "ECCENTRICITY": 0.00010626, "INCLINATION": 97.4404, "RA_OF_ASC_NODE": 71.4469, "ARG_OF_PERICENTER": 209.0656, "MEAN_ANOMALY": 88.6485, "EPHEMERIS_TYPE": 0, "CLASSIFICATION_TYPE": "U", "NORAD_CAT_ID": 66703, "ELEMENT_SET_NO": 999, "REV_AT_EPOCH": 526, "BSTAR": -0.0012243112, "MEAN_MOTION_DOT": -0.00024411, "MEAN_MOTION_DDOT": 0}, "tle": {"line1": "1 66703U 25276AP  25359.91668981 -.00024411  00000+0 -12243-2 0  9993", "line2": "2 66703  97.4404  71.4469 0001062 209.0656  88.6485 15.17368571  5266"}}, "geometry": {"type": "Point", "coordinates": [86.90757308897841, -63.31776645354736]}}, {"type": "Feature", "properties": {"norad_id": 66704, "name": "FLOCK 4H-1", "group": "last-30-days", "lat": 2.007384599369841, "lon": 71.5909052538982, "alt_km": 515.1154692973241, "timestamp": "2025-12-26T07:29:17.192451+00:00", "meta": {"OBJECT_NAME": "FLOCK 4H-1", "OBJECT_ID": "2025-276AQ", "EPOCH": "2025-12-25T20:24:31.350240", "MEAN_MOTION": 15.18419865, "ECCENTRICITY": 0.00034549, "INCLINATION": 97.438, "RA_OF_ASC_NODE": 71.3992, "ARG_OF_PERICENTER": 203.5833, "MEAN_ANOMALY": 156.5243, "EPHEMERIS_TYPE": 0, "CLASSIFICATION_TYPE": "U", "NORAD_CAT_ID": 66704, "ELEMENT_SET_NO": 999, "REV_AT_EPOCH": 411, "BSTAR": 0.0099609823, "MEAN_MOTION_DOT": 0.00210769, "MEAN_MOTION_DDOT": 0}, "tle": {"line1": "1 66704U 25276AQ  25359.85036285  .00210769  00000+0  99610-2 0  9997", "line2": "2 66704  97.4380  71.3992 0003454 203.5833 156.5243 15.18419865  4117"}}, "geometry": {"type": "Point", "coordinates": [71.5909052538982, 2.007384599369841]}}, {"type": "Feature", "properties": {"norad_id": 66705, "name": "FLOCK 4H-2", "group": "last-30-days", "lat": 4.1337724286961075, "lon": 71.31214725654476, "alt_km": 514.7307516524179, "timestamp": "2025-12-26T07:29:17.192462+00:00", "meta": {"OBJECT_NAME": "FLOCK 4H-2", "OBJECT_ID": "2025-276AR", "EPOCH": "2025-12-25T21:58:43.389408", "MEAN_MOTION": 15.18180236, "ECCENTRICITY": 0.00015379, "INCLINATION": 97.4371, "RA_OF_ASC_NODE": 71.4636, "ARG_OF_PERICENTER": 151.535, "MEAN_ANOMALY": 208.5968, "EPHEMERIS_TYPE": 0, "CLASSIFICATION_TYPE": "U", "NORAD_CAT_ID": 66705, "ELEMENT_SET_NO": 999, "REV_AT_EPOCH": 412, "BSTAR": 0.00037601474, "MEAN_MOTION_DOT": 7.62e-05, "MEAN_MOTION_DDOT": 0}, "tle": {"line1": "1 66705U 25276AR  25359.91577997  .00007620  00000+0  37601-3 0  9998", "line2": "2 66705  97.4371  71.4636 0001537 151.5350 208.5968 15.18180236  4120"}}, "geometry": {"type": "Point", "coordinates": [71.31214725654476, 4.1337724286961075]}}, {"type": "Feature", "properties": {"norad_id": 66706, "name": "FLOCK 4H-3", "group": "last-30-days", "lat": -57.70518904018863, "lon": 83.79115030071264, "alt_km": 519.8187549980948, "timestamp": "2025-12-26T07:29:17.192472+00:00", "meta": {"OBJECT_NAME": "FLOCK 4H-3", "OBJECT_ID": "2025-276AS", "EPOCH": "2025-12-25T22:15:00.755712", "MEAN_MOTION": 15.17511393, "ECCENTRICITY": 0.00030332, "INCLINATION": 97.4438, "RA_OF_ASC_NODE": 71.4744, "ARG_OF_PERICENTER": 231.4892, "MEAN_ANOMALY": 128.607, "EPHEMERIS_TYPE": 0, "CLASSIFICATION_TYPE": "U", "NORAD_CAT_ID": 66706, "ELEMENT_SET_NO": 999, "REV_AT_EPOCH": 412, "BSTAR": 0.00026463673, "MEAN_MOTION_DOT": 5.24e-05, "MEAN_MOTION_DDOT": 0}, "tle": {"line1": "1 66706U 25276AS  25359.92709208  .00005240  00000+0  26464-3 0  9993", "line2": "2 66706  97.4438  71.4744 0003033 231.4892 128.6070 15.17511393  4124"}}, "geometry": {"type": "Point", "coordinates": [83.79115030071264, -57.70518904018863]}}]}